#dV2023  2  3 10  0  0.00000000    1682       CTS   FIT  GFZ
## 2247 468000.00000000    30.00000000 59978 0.4166666666667
+    1   L65  0  0  0  0  0  0  0  0  0  0  0  0  0  0  0  0
+          0  0  0  0  0  0  0  0  0  0  0  0  0  0  0  0  0
+          0  0  0  0  0  0  0  0  0  0  0  0  0  0  0  0  0
+          0  0  0  0  0  0  0  0  0  0  0  0  0  0  0  0  0
+          0  0  0  0  0  0  0  0  0  0  0  0  0  0  0  0  0
++         0  0  0  0  0  0  0  0  0  0  0  0  0  0  0  0  0
++         0  0  0  0  0  0  0  0  0  0  0  0  0  0  0  0  0
++         0  0  0  0  0  0  0  0  0  0  0  0  0  0  0  0  0
++         0  0  0  0  0  0  0  0  0  0  0  0  0  0  0  0  0
++         0  0  0  0  0  0  0  0  0  0  0  0  0  0  0  0  0
%c L  cc GPS ccc cccc cccc cccc cccc ccccc ccccc ccccc ccccc
%c cc cc ccc ccc cccc cccc cccc cccc ccccc ccccc ccccc ccccc
%f  0.0000000  0.000000000  0.00000000000  0.000000000000000
%f  0.0000000  0.000000000  0.00000000000  0.000000000000000
%i    0    0    0    0      0      0      0      0         0
%i    0    0    0    0      0      0      0      0         0
/* CCCCCCCCCCCCCCCCCCCCCCCCCCCCCCCCCCCCCCCCCCCCCCCCCCCCCCCCCCCCCCCCCCCCCCCCCCCCC
/* C                             GFZ RSO-ORBIT                                 C
/* C DOI: https://doi.org/10.5880/GFZ_ORBIT/RSO/L65_G_v02                      C
/* C                                                                           C
/* C DORIS        RMS: not applicable                                          C
/* C GNSS-E Code  RMS: not applicable                                          C
/* C GNSS-E Phase RMS: not applicable                                          C
/* C GNSS-G Code  RMS:  49.944 [cm]   Obs.acc.:     13598 Obs.eli.:       930  C
/* C GNSS-G Phase RMS:   4.533 [mm]   Obs.acc.:     13598 Obs.eli.:       930  C
/* C SLR          RMS:   0.924 [cm]   Obs.acc.:        27 Obs.eli.:         0  C
/* C                                                                           C
/* CCCCCCCCCCCCCCCCCCCCCCCCCCCCCCCCCCCCCCCCCCCCCCCCCCCCCCCCCCCCCCCCCCCCCCCCCCCCC
*  2023  2  3 23 36  0.00000000
PL65    479.562025   1044.262141  -6779.057086    395.095679
VL65 -37635.148584 -64726.403263 -12743.605194 999999.999999
*  2023  2  3 23 36 30.00000000
PL65    365.990003    849.795743  -6813.550425    395.564879
VL65 -38072.762604 -64905.723917 -10249.933736 999999.999999
*  2023  2  3 23 37  0.00000000
PL65    251.166455    654.900608  -6840.545928    396.033586
VL65 -38469.372408 -65012.237492  -7745.501618 999999.999999
*  2023  2  3 23 37 30.00000000
PL65    135.215505    459.795027  -6860.015399    396.502645
VL65 -38824.246522 -65046.044808  -5233.033347 999999.999999
*  2023  2  3 23 38  0.00000000
PL65     18.263399    264.696867  -6871.938819    396.971714
VL65 -39136.699366 -65007.326541  -2715.255961 999999.999999
*  2023  2  3 23 38 30.00000000
PL65    -99.561628     69.823337  -6876.304352    397.440804
VL65 -39406.090418 -64896.340891   -194.896013 999999.999999
*  2023  2  3 23 39  0.00000000
PL65   -218.129483   -124.609242  -6873.108338    397.909707
VL65 -39631.822517 -64713.420839   2325.320581 999999.999999
*  2023  2  3 23 39 30.00000000
PL65   -337.308350   -318.385659  -6862.355300    398.379069
VL65 -39813.343569 -64458.974804   4842.665660 999999.999999
*  2023  2  3 23 40  0.00000000
PL65   -456.964829   -511.292049  -6844.057943    398.848007
VL65 -39950.151474 -64133.490146   7354.412153 999999.999999
*  2023  2  3 23 40 30.00000000
PL65   -576.964093   -703.116124  -6818.237144    399.316880
VL65 -40041.795284 -63737.531931   9857.842077 999999.999999
*  2023  2  3 23 41  0.00000000
PL65   -697.170034   -893.647404  -6784.921914    399.785978
VL65 -40087.873434 -63271.739118  12350.249607 999999.999999
*  2023  2  3 23 41 30.00000000
PL65   -817.445414  -1082.677433  -6744.149363    400.254840
VL65 -40088.033548 -62736.823050  14828.940930 999999.999999
*  2023  2  3 23 42  0.00000000
PL65   -937.652013  -1270.000000  -6695.964666    400.723695
VL65 -40041.973634 -62133.567426  17291.234672 999999.999999
*  2023  2  3 23 42 30.00000000
PL65  -1057.650784  -1455.411353  -6640.421020    401.193027
VL65 -39949.444169 -61462.829300  19734.463846 999999.999999
*  2023  2  3 23 43  0.00000000
PL65  -1177.302012  -1638.710422  -6577.579596    401.661997
VL65 -39810.249939 -60725.539243  22155.980960 999999.999999
*  2023  2  3 23 43 30.00000000
PL65  -1296.465476  -1819.699036  -6507.509470    402.131214
VL65 -39624.249697 -59922.698731  24553.163216 999999.999999
*  2023  2  3 23 44  0.00000000
PL65  -1415.000614  -1998.182131  -6430.287549    402.599876
VL65 -39391.354762 -59055.377130  26923.414335 999999.999999
*  2023  2  3 23 44 30.00000000
PL65  -1532.766672  -2173.967951  -6345.998486    403.068924
VL65 -39111.529118 -58124.710696  29264.164633 999999.999999
*  2023  2  3 23 45  0.00000000
PL65  -1649.622874  -2346.868251  -6254.734604    403.538250
VL65 -38784.791125 -57131.902659  31572.872927 999999.999999
*  2023  2  3 23 45 30.00000000
PL65  -1765.428579  -2516.698493  -6156.595800    404.007424
VL65 -38411.214516 -56078.222171  33847.030354 999999.999999
*  2023  2  3 23 46  0.00000000
PL65  -1880.043450  -2683.278042  -6051.689447    404.475949
VL65 -37990.928236 -54965.002166  36084.163278 999999.999999
*  2023  2  3 23 46 30.00000000
PL65  -1993.327621  -2846.430359  -5940.130283    404.945019
VL65 -37524.116399 -53793.637715  38281.834971 999999.999999
*  2023  2  3 23 47  0.00000000
PL65  -2105.141861  -3005.983179  -5822.040298    405.414218
VL65 -37011.018875 -52565.585107  40437.647339 999999.999999
*  2023  2  3 23 47 30.00000000
PL65  -2215.347743  -3161.768696  -5697.548617    405.883187
VL65 -36451.932083 -51282.360997  42549.243586 999999.999999
*  2023  2  3 23 48  0.00000000
PL65  -2323.807815  -3313.623747  -5566.791367    406.352053
VL65 -35847.209578 -49945.540976  44614.311325 999999.999999
*  2023  2  3 23 48 30.00000000
PL65  -2430.385774  -3461.389977  -5429.911544    406.821163
VL65 -35197.262424 -48556.757876  46630.585858 999999.999999
*  2023  2  3 23 49  0.00000000
PL65  -2534.946632  -3604.914017  -5287.058861    407.290238
VL65 -34502.558736 -47117.699502  48595.853410 999999.999999
*  2023  2  3 23 49 30.00000000
PL65  -2637.356892  -3744.047638  -5138.389593    407.759182
VL65 -33763.622842 -45630.106230  50507.953258 999999.999999
*  2023  2  3 23 50  0.00000000
PL65  -2737.484715  -3878.647909  -4984.066416    408.228128
VL65 -32981.035003 -44095.769324  52364.779607 999999.999999
*  2023  2  3 23 50 30.00000000
PL65  -2835.200084  -4008.577349  -4824.258239    408.697172
VL65 -32155.431238 -42516.529170  54164.284056 999999.999999
*  2023  2  3 23 51  0.00000000
PL65  -2930.374976  -4133.704067  -4659.140025    409.166207
VL65 -31287.503007 -40894.273128  55904.477988 999999.999999
*  2023  2  3 23 51 30.00000000
PL65  -3022.883522  -4253.901902  -4488.892610    409.635082
VL65 -30377.996760 -39230.933422  57583.434707 999999.999999
*  2023  2  3 23 52  0.00000000
PL65  -3112.602178  -4369.050557  -4313.702518    410.104024
VL65 -29427.713462 -37528.485131  59199.291543 999999.999999
*  2023  2  3 23 52 30.00000000
PL65  -3199.409879  -4479.035719  -4133.761760    410.573288
VL65 -28437.508086 -35788.944026  60750.251975 999999.999999
*  2023  2  3 23 53  0.00000000
PL65  -3283.188211  -4583.749182  -3949.267634    411.042380
VL65 -27408.289207 -34014.364423  62234.587589 999999.999999
*  2023  2  3 23 53 30.00000000
PL65  -3363.821561  -4683.088957  -3760.422520    411.511161
VL65 -26341.018624 -32206.837244  63650.640295 999999.999999
*  2023  2  3 23 54  0.00000000
PL65  -3441.197284  -4776.959382  -3567.433663    411.980053
VL65 -25236.710725 -30368.487682  64996.824940 999999.999999
*  2023  2  3 23 54 30.00000000
PL65  -3515.205852  -4865.271216  -3370.512951    412.448954
VL65 -24096.431508 -28501.472304  66271.631637 999999.999999
*  2023  2  3 23 55  0.00000000
PL65  -3585.741016  -4947.941734  -3169.876686    412.917873
VL65 -22921.297340 -26607.976140  67473.627444 999999.999999
*  2023  2  3 23 55 30.00000000
PL65  -3652.699946  -5024.894803  -2965.745354    413.386943
VL65 -21712.473882 -24690.210269  68601.457547 999999.999999
*  2023  2  3 23 56  0.00000000
PL65  -3715.983383  -5096.060960  -2758.343384    413.855875
VL65 -20471.175339 -22750.409913  69653.846867 999999.999999
*  2023  2  3 23 56 30.00000000
PL65  -3775.495783  -5161.377484  -2547.898910    414.324570
VL65 -19198.663472 -20790.832132  70629.602435 999999.999999
*  2023  2  3 23 57  0.00000000
PL65  -3831.145456  -5220.788451  -2334.643515    414.793452
VL65 -17896.246094 -18813.752669  71527.615451 999999.999999
*  2023  2  3 23 57 30.00000000
PL65  -3882.844705  -5274.244789  -2118.811986    415.262789
VL65 -16565.275583 -16821.462899  72346.862375 999999.999999
*  2023  2  3 23 58  0.00000000
PL65  -3930.509951  -5321.704322  -1900.642047    415.731360
VL65 -15207.147634 -14816.267442  73086.406013 999999.999999
*  2023  2  3 23 58 30.00000000
PL65  -3974.061869  -5363.131803  -1680.374105    416.200223
VL65 -13823.299882 -12800.481760  73745.397093 999999.999999
*  2023  2  3 23 59  0.00000000
PL65  -4013.425507  -5398.498946  -1458.250980    416.669454
VL65 -12415.210194 -10776.429306  74323.075806 999999.999999
*  2023  2  3 23 59 30.00000000
PL65  -4048.530404  -5427.784441  -1234.517635    417.138167
VL65 -10984.394909  -8746.438563  74818.772961 999999.999999
*  2023  2  4  0  0  0.00000000
PL65  -4079.310703  -5450.973970  -1009.420904    417.607287
VL65  -9532.407043  -6712.840079  75231.911116 999999.999999
*  2023  2  4  0  0 30.00000000
PL65  -4105.705260  -5468.060203   -783.209216 999999.999999
VL65  -8060.834236  -4677.963267  75562.005269 999999.999999
EOF
